IRIDIUM 106             
1 41917U 17003A   25180.69470158 -.00000002  00000+0 -78589-5 0  9994
2 41917  86.3968 235.7761 0002000  80.7478 279.3944 14.34217538442681
IRIDIUM 103             
1 41918U 17003B   25180.68201815 -.00000033  00000+0 -18745-4 0  9997
2 41918  86.3967 235.6819 0002761  86.9457 273.2054 14.34217383442709
IRIDIUM 109             
1 41919U 17003C   25181.17673933 -.00000014  00000+0 -11937-4 0  9992
2 41919  86.3969 235.5290 0002386  95.0882 265.0586 14.34217516442763
IRIDIUM 102             
1 41920U 17003D   25180.72641378  .00000052  00000+0  11587-4 0  9993
2 41920  86.3964 235.6483 0002309  96.8623 263.2836 14.34217025442765
IRIDIUM 105             
1 41921U 17003E   25181.11576024  .00000165  00000+0  51875-4 0  9992
2 41921  86.3985 203.9562 0002527  88.5529 271.5956 14.34219492444677
IRIDIUM 104             
1 41922U 17003F   25180.66933279 -.00000010  00000+0 -10541-4 0  9997
2 41922  86.3969 235.7097 0002612  95.4913 264.6581 14.34217463442744
IRIDIUM 114             
1 41923U 17003G   25181.16405438  .00000039  00000+0  67209-5 0  9998
2 41923  86.3965 235.4873 0002531  88.2104 271.9381 14.34217818442813
IRIDIUM 108             
1 41924U 17003H   25180.77373132  .00000024  00000+0  15104-5 0  9991
2 41924  86.3979 203.9995 0002132  90.1134 270.0306 14.34218026444592
